start=new Date('2022-05-13T00:00:00.000Z').valueOf();
sats=[{"LAUNCH_DATE":"2022-03-09","REF_FRAME":"TEME","FILE":"3442534","REV_AT_EPOCH":"130","EPOCH":"2022-05-12T22:00:00.999936","TLE_LINE2":"2 51984  53.2176 189.6009 0001513  47.9749 296.6496 15.17399419  1301","MEAN_MOTION_DOT":"-0.00694956","CENTER_NAME":"EARTH","MEAN_MOTION_DDOT":"0.0000000000000","DECAY_DATE":null,"PERIAPSIS":"512.663","EPHEMERIS_TYPE":"0","ARG_OF_PERICENTER":"47.9749","MEAN_MOTION":"15.17399419","COUNTRY_CODE":"US","OBJECT_ID":"2022-025AE","INCLINATION":"53.2176","RCS_SIZE":"LARGE","MEAN_ELEMENT_THEORY":"SGP4","RA_OF_ASC_NODE":"189.6009","ELEMENT_SET_NO":"999","SITE":"AFETR","NORAD_CAT_ID":"51984","APOAPSIS":"514.748","OBJECT_NAME":"STARLINK-3664","OBJECT_TYPE":"PAYLOAD","SEMIMAJOR_AXIS":"6891.841","GP_ID":"203395090","BSTAR":"-0.03677300000000","TLE_LINE1":"1 51984U 22025AE  22132.91667824 -.00694956  00000-0 -36773-1 0  9999","TIME_SYSTEM":"UTC","MEAN_ANOMALY":"296.6496","CLASSIFICATION_TYPE":"U","ECCENTRICITY":"0.00015130","PERIOD":"94.899"},{"PERIAPSIS":"520.276","DECAY_DATE":null,"MEAN_MOTION_DDOT":"0.0000000000000","MEAN_MOTION_DOT":"-0.00693056","CENTER_NAME":"EARTH","RCS_SIZE":"LARGE","MEAN_ELEMENT_THEORY":"SGP4","COUNTRY_CODE":"US","OBJECT_ID":"2022-025AF","INCLINATION":"53.2175","MEAN_MOTION":"15.14899444","EPHEMERIS_TYPE":"0","ARG_OF_PERICENTER":"66.4553","FILE":"3442534","REF_FRAME":"TEME","LAUNCH_DATE":"2022-03-09","TLE_LINE2":"2 51985  53.2175 189.5943 0001463  66.4553 163.0716 15.14899444  1302","EPOCH":"2022-05-12T22:00:00.999936","REV_AT_EPOCH":"130","TLE_LINE1":"1 51985U 22025AF  22132.91667824 -.00693056  00000-0 -39387-1 0  9994","BSTAR":"-0.03938700000000","ECCENTRICITY":"0.00014630","CLASSIFICATION_TYPE":"U","PERIOD":"95.056","MEAN_ANOMALY":"163.0716","TIME_SYSTEM":"UTC","NORAD_CAT_ID":"51985","APOAPSIS":"522.295","SITE":"AFETR","RA_OF_ASC_NODE":"189.5943","ELEMENT_SET_NO":"999","SEMIMAJOR_AXIS":"6899.421","GP_ID":"203394497","OBJECT_TYPE":"PAYLOAD","OBJECT_NAME":"STARLINK-3651"},{"OBJECT_NAME":"STARLINK-3645","OBJECT_TYPE":"PAYLOAD","GP_ID":"203395005","SEMIMAJOR_AXIS":"6891.100","RA_OF_ASC_NODE":"189.5995","ELEMENT_SET_NO":"999","SITE":"AFETR","NORAD_CAT_ID":"51986","APOAPSIS":"513.883","TIME_SYSTEM":"UTC","MEAN_ANOMALY":"321.3171","ECCENTRICITY":"0.00013320","CLASSIFICATION_TYPE":"U","PERIOD":"94.884","BSTAR":"-0.03650300000000","TLE_LINE1":"1 51986U 22025AG  22132.91667824 -.00694735  00000-0 -36503-1 0  9997","REV_AT_EPOCH":"130","EPOCH":"2022-05-12T22:00:00.999936","TLE_LINE2":"2 51986  53.2176 189.5995 0001332  58.0858 321.3171 15.17643948  1304","LAUNCH_DATE":"2022-03-09","REF_FRAME":"TEME","FILE":"3442534","EPHEMERIS_TYPE":"0","ARG_OF_PERICENTER":"58.0858","MEAN_MOTION":"15.17643948","COUNTRY_CODE":"US","INCLINATION":"53.2176","OBJECT_ID":"2022-025AG","RCS_SIZE":"LARGE","MEAN_ELEMENT_THEORY":"SGP4","CENTER_NAME":"EARTH","MEAN_MOTION_DOT":"-0.00694735","MEAN_MOTION_DDOT":"0.0000000000000","DECAY_DATE":null,"PERIAPSIS":"512.048"},{"TLE_LINE2":"2 51987  53.2176 189.6019 0001450  55.1219 254.5771 15.17154665  1309","REV_AT_EPOCH":"130","EPOCH":"2022-05-12T22:00:00.999936","REF_FRAME":"TEME","FILE":"3442534","LAUNCH_DATE":"2022-03-09","COUNTRY_CODE":"US","INCLINATION":"53.2176","OBJECT_ID":"2022-025AH","RCS_SIZE":"LARGE","MEAN_ELEMENT_THEORY":"SGP4","EPHEMERIS_TYPE":"0","ARG_OF_PERICENTER":"55.1219","MEAN_MOTION":"15.17154665","DECAY_DATE":null,"PERIAPSIS":"513.448","MEAN_MOTION_DOT":"-0.00694681","CENTER_NAME":"EARTH","MEAN_MOTION_DDOT":"0.0000000000000","GP_ID":"203394920","SEMIMAJOR_AXIS":"6892.582","OBJECT_NAME":"STARLINK-3644","OBJECT_TYPE":"PAYLOAD","SITE":"AFETR","NORAD_CAT_ID":"51987","APOAPSIS":"515.446","RA_OF_ASC_NODE":"189.6019","ELEMENT_SET_NO":"999","ECCENTRICITY":"0.00014500","CLASSIFICATION_TYPE":"U","PERIOD":"94.915","MEAN_ANOMALY":"254.5771","TIME_SYSTEM":"UTC","TLE_LINE1":"1 51987U 22025AH  22132.91667824 -.00694681  00000-0 -37018-1 0  9990","BSTAR":"-0.03701800000000"},{"ECCENTRICITY":"0.00013890","CLASSIFICATION_TYPE":"U","PERIOD":"94.876","TIME_SYSTEM":"UTC","MEAN_ANOMALY":"343.0604","TLE_LINE1":"1 51988U 22025AJ  22132.91667824 -.00694538  00000-0 -36363-1 0  9994","BSTAR":"-0.03636300000000","SEMIMAJOR_AXIS":"6890.730","GP_ID":"203394752","OBJECT_NAME":"STARLINK-3640","OBJECT_TYPE":"PAYLOAD","SITE":"AFETR","NORAD_CAT_ID":"51988","APOAPSIS":"513.553","RA_OF_ASC_NODE":"189.5986","ELEMENT_SET_NO":"999","COUNTRY_CODE":"US","OBJECT_ID":"2022-025AJ","INCLINATION":"53.2176","RCS_SIZE":"LARGE","MEAN_ELEMENT_THEORY":"SGP4","EPHEMERIS_TYPE":"0","ARG_OF_PERICENTER":"53.6765","MEAN_MOTION":"15.17766193","DECAY_DATE":null,"PERIAPSIS":"511.638","MEAN_MOTION_DOT":"-0.00694538","CENTER_NAME":"EARTH","MEAN_MOTION_DDOT":"0.0000000000000","TLE_LINE2":"2 51988  53.2176 189.5986 0001389  53.6765 343.0604 15.17766193  1306","REV_AT_EPOCH":"130","EPOCH":"2022-05-12T22:00:00.999936","REF_FRAME":"TEME","FILE":"3442534","LAUNCH_DATE":"2022-03-09"},{"EPHEMERIS_TYPE":"0","ARG_OF_PERICENTER":"51.3549","MEAN_MOTION":"15.17277072","COUNTRY_CODE":"US","OBJECT_ID":"2022-025AK","INCLINATION":"53.2176","RCS_SIZE":"LARGE","MEAN_ELEMENT_THEORY":"SGP4","MEAN_MOTION_DOT":"-0.00694884","CENTER_NAME":"EARTH","MEAN_MOTION_DDOT":"0.0000000000000","DECAY_DATE":null,"PERIAPSIS":"513.049","REV_AT_EPOCH":"130","EPOCH":"2022-05-12T22:00:00.999936","TLE_LINE2":"2 51989  53.2176 189.6014 0001490  51.3549 275.8253 15.17277072  1303","LAUNCH_DATE":"2022-03-09","REF_FRAME":"TEME","FILE":"3442534","MEAN_ANOMALY":"275.8253","TIME_SYSTEM":"UTC","CLASSIFICATION_TYPE":"U","ECCENTRICITY":"0.00014900","PERIOD":"94.907","BSTAR":"-0.03689900000000","TLE_LINE1":"1 51989U 22025AK  22132.91667824 -.00694884  00000-0 -36899-1 0  9993","OBJECT_TYPE":"PAYLOAD","OBJECT_NAME":"STARLINK-3642","GP_ID":"203394835","SEMIMAJOR_AXIS":"6892.211","RA_OF_ASC_NODE":"189.6014","ELEMENT_SET_NO":"999","SITE":"AFETR","NORAD_CAT_ID":"51989","APOAPSIS":"515.103"},{"PERIAPSIS":"347.484","DECAY_DATE":null,"MEAN_MOTION_DDOT":"0.0000000000000","MEAN_MOTION_DOT":"-0.00038284","CENTER_NAME":"EARTH","RCS_SIZE":"LARGE","MEAN_ELEMENT_THEORY":"SGP4","COUNTRY_CODE":"US","OBJECT_ID":"2022-025AL","INCLINATION":"53.2128","MEAN_MOTION":"15.73257499","EPHEMERIS_TYPE":"0","ARG_OF_PERICENTER":"17.6197","FILE":"3442534","REF_FRAME":"TEME","LAUNCH_DATE":"2022-03-09","TLE_LINE2":"2 51990  53.2128 181.2630 0003140  17.6197 130.0610 15.73257499  1304","EPOCH":"2022-05-12T22:00:00.999936","REV_AT_EPOCH":"130","TLE_LINE1":"1 51990U 22025AL  22132.91667824 -.00038284  00000-0 -26883-3 0  9995","BSTAR":"-0.00026883000000","CLASSIFICATION_TYPE":"U","ECCENTRICITY":"0.00031400","PERIOD":"91.530","MEAN_ANOMALY":"130.0610","TIME_SYSTEM":"UTC","NORAD_CAT_ID":"51990","APOAPSIS":"351.709","SITE":"AFETR","RA_OF_ASC_NODE":"181.2630","ELEMENT_SET_NO":"999","GP_ID":"203394668","SEMIMAJOR_AXIS":"6727.731","OBJECT_NAME":"STARLINK-3657","OBJECT_TYPE":"PAYLOAD"},{"COUNTRY_CODE":"US","OBJECT_ID":"2022-025AM","INCLINATION":"53.2176","RCS_SIZE":"LARGE","MEAN_ELEMENT_THEORY":"SGP4","EPHEMERIS_TYPE":"0","ARG_OF_PERICENTER":"49.4697","MEAN_MOTION":"15.17521684","DECAY_DATE":null,"PERIAPSIS":"512.331","CENTER_NAME":"EARTH","MEAN_MOTION_DOT":"-0.00694870","MEAN_MOTION_DDOT":"0.0000000000000","TLE_LINE2":"2 51991  53.2176 189.6002 0001457  49.4697 312.5624 15.17521684  1300","REV_AT_EPOCH":"130","EPOCH":"2022-05-12T22:00:00.999936","REF_FRAME":"TEME","FILE":"3442534","LAUNCH_DATE":"2022-03-09","ECCENTRICITY":"0.00014570","CLASSIFICATION_TYPE":"U","PERIOD":"94.892","TIME_SYSTEM":"UTC","MEAN_ANOMALY":"312.5624","TLE_LINE1":"1 51991U 22025AM  22132.91667824 -.00694870  00000-0 -36639-1 0  9993","BSTAR":"-0.03663900000000","GP_ID":"203394583","SEMIMAJOR_AXIS":"6891.471","OBJECT_NAME":"STARLINK-3652","OBJECT_TYPE":"PAYLOAD","SITE":"AFETR","NORAD_CAT_ID":"51991","APOAPSIS":"514.340","RA_OF_ASC_NODE":"189.6002","ELEMENT_SET_NO":"999"},{"BSTAR":"-0.00024256000000","TLE_LINE1":"1 51992U 22025AN  22132.91667824 -.00034620  00000-0 -24256-3 0  9999","TIME_SYSTEM":"UTC","MEAN_ANOMALY":"136.0959","ECCENTRICITY":"0.00029040","CLASSIFICATION_TYPE":"U","PERIOD":"91.530","RA_OF_ASC_NODE":"181.2585","ELEMENT_SET_NO":"999","NORAD_CAT_ID":"51992","APOAPSIS":"351.543","SITE":"AFETR","OBJECT_TYPE":"PAYLOAD","OBJECT_NAME":"STARLINK-3643","GP_ID":"203395091","SEMIMAJOR_AXIS":"6727.724","MEAN_MOTION_DDOT":"0.0000000000000","MEAN_MOTION_DOT":"-0.00034620","CENTER_NAME":"EARTH","PERIAPSIS":"347.636","DECAY_DATE":null,"MEAN_MOTION":"15.73259950","EPHEMERIS_TYPE":"0","ARG_OF_PERICENTER":"13.4813","RCS_SIZE":"LARGE","MEAN_ELEMENT_THEORY":"SGP4","COUNTRY_CODE":"US","INCLINATION":"53.2128","OBJECT_ID":"2022-025AN","LAUNCH_DATE":"2022-03-09","FILE":"3442534","REF_FRAME":"TEME","EPOCH":"2022-05-12T22:00:00.999936","REV_AT_EPOCH":"130","TLE_LINE2":"2 51992  53.2128 181.2585 0002904  13.4813 136.0959 15.73259950  1307"},{"EPOCH":"2022-05-12T22:00:00.999936","REV_AT_EPOCH":"130","TLE_LINE2":"2 51993  53.2176 189.5977 0001619  41.5459  12.4882 15.17888411  1307","LAUNCH_DATE":"2022-03-09","FILE":"3442534","REF_FRAME":"TEME","MEAN_MOTION":"15.17888411","ARG_OF_PERICENTER":"41.5459","EPHEMERIS_TYPE":"0","MEAN_ELEMENT_THEORY":"SGP4","RCS_SIZE":"LARGE","OBJECT_ID":"2022-025AP","INCLINATION":"53.2176","COUNTRY_CODE":"US","MEAN_MOTION_DDOT":"0.0000000000000","CENTER_NAME":"EARTH","MEAN_MOTION_DOT":"-0.00694297","PERIAPSIS":"511.110","DECAY_DATE":null,"OBJECT_TYPE":"PAYLOAD","OBJECT_NAME":"STARLINK-3648","SEMIMAJOR_AXIS":"6890.360","GP_ID":"203394498","ELEMENT_SET_NO":"999","RA_OF_ASC_NODE":"189.5977","APOAPSIS":"513.341","NORAD_CAT_ID":"51993","SITE":"AFETR","TIME_SYSTEM":"UTC","MEAN_ANOMALY":"12.4882","PERIOD":"94.869","CLASSIFICATION_TYPE":"U","ECCENTRICITY":"0.00016190","BSTAR":"-0.03622000000000","TLE_LINE1":"1 51993U 22025AP  22132.91667824 -.00694297  00000-0 -36220-1 0  9994"}];
